[{"OBJECT_NAME":"STARLINK-6291","OBJECT_ID":"2023-065AW","EPOCH":"2026-03-09T22:00:01.999584","MEAN_MOTION":15.11949654,"ECCENTRICITY":0.00013244,"INCLINATION":42.9999,"RA_OF_ASC_NODE":221.1918,"ARG_OF_PERICENTER":282.985,"MEAN_ANOMALY":298.7802,"EPHEMERIS_TYPE":0,"CLASSIFICATION_TYPE":"U","NORAD_CAT_ID":56547,"ELEMENT_SET_NO":999,"REV_AT_EPOCH":557,"BSTAR":0.0048629673,"MEAN_MOTION_DOT":0.00085653,"MEAN_MOTION_DDOT":0},{"OBJECT_NAME":"SL-8 DEB","OBJECT_ID":"1986-052E","EPOCH":"2026-03-08T09:24:38.203776","MEAN_MOTION":15.11223117,"ECCENTRICITY":0.00100672,"INCLINATION":74.0059,"RA_OF_ASC_NODE":66.8929,"ARG_OF_PERICENTER":314.4934,"MEAN_ANOMALY":45.5435,"EPHEMERIS_TYPE":0,"CLASSIFICATION_TYPE":"U","NORAD_CAT_ID":16867,"ELEMENT_SET_NO":999,"REV_AT_EPOCH":11371,"BSTAR":0.0018795551,"MEAN_MOTION_DOT":0.0003173,"MEAN_MOTION_DDOT":0}]
